[{"OBJECT_NAME":"STARLINK-1454","OBJECT_ID":"2020-035Q","EPOCH":"2026-03-10T00:00:02.999808","MEAN_MOTION":15.51126442,"ECCENTRICITY":0.00086064,"INCLINATION":53.0515,"RA_OF_ASC_NODE":51.3708,"ARG_OF_PERICENTER":61.5292,"MEAN_ANOMALY":248.5071,"EPHEMERIS_TYPE":0,"CLASSIFICATION_TYPE":"U","NORAD_CAT_ID":45671,"ELEMENT_SET_NO":999,"REV_AT_EPOCH":591,"BSTAR":0.001841095,"MEAN_MOTION_DOT":0.00110444,"MEAN_MOTION_DDOT":0},{"OBJECT_NAME":"STARLINK-1394","OBJECT_ID":"2020-035Y","EPOCH":"2026-03-09T07:04:11.880480","MEAN_MOTION":15.49750086,"ECCENTRICITY":0.00028708,"INCLINATION":53.0499,"RA_OF_ASC_NODE":38.4615,"ARG_OF_PERICENTER":117.7699,"MEAN_ANOMALY":242.36,"EPHEMERIS_TYPE":0,"CLASSIFICATION_TYPE":"U","NORAD_CAT_ID":45679,"ELEMENT_SET_NO":999,"REV_AT_EPOCH":31909,"BSTAR":0.0016490393,"MEAN_MOTION_DOT":0.0009384,"MEAN_MOTION_DDOT":0}]
